full_name,e,q,i,om,w,ad,tp_cal,per_y,class,data_arc,condition_code,n_obs_used,two_body,A1,A2,A3,DT
"     C/2019 Y1 (ATLAS)",.9965095422355938,.8378241887259507,73.34814244063271,31.3663224927079,57.49823420689214,479.2276831321991,20200315.5637315,3718.89540053528,COM,187,,993,,,1.111144410992249E-8,,
"     P/2019 Y2 (Fuls)",.3849248941694462,2.124829805568424,4.896252613217092,80.83637334349343,92.33153364144546,4.784342051417089,20200131.8047827,6.42099307881386,ETc,174,4,626,,,,,
"     P/2019 Y3 (Catalina)",.6957830663174389,.9119993527706466,24.63522474375647,139.3826941535015,2.266734985153481,5.083717859488705,20191213.4595339,5.19068794368968,JFc,41,6,84,,,,,
"     C/2019 Y4 (ATLAS)",.9992352330367696,.2528378480236659,45.38387091906765,120.5720880573815,177.4083971162164,660.9625654839537,20200531.0164187,6011.42802898712,COM,115,,1250,,2.855296209582064E-7,-9.07343291903086E-9,,
"     C/2019 Y4-A (ATLAS)",1.002209521213027,.2503483608868151,45.98190846135657,121.0466187320116,177.184327522225,,20200531.0464906,,HYP,27,,593,,,,,
"     C/2019 Y4-B (ATLAS)",.9996207788164868,.2525414373085628,45.45425932217252,120.6254768924723,177.3826846341452,1331.642660033044,20200531.0224727,17185.7420975134,COM,40,,803,,,,,
"     C/2019 Y4-C (ATLAS)",1.001737081173832,.252209357064097,45.57221417930071,120.6318347256435,177.2933526849599,,20200531.0024151,,HYP,26,,425,,,,,
"     C/2019 Y4-D (ATLAS)",.9898679875903229,.2542429731250058,44.95467243950517,120.6559390884409,177.7425034424157,49.9318331675197,20200531.1413190,125.700808346058,HTC,8,9,74,,,,,
"     C/2019 Y4-E (ATLAS)",.9872325318309546,.2524725486661153,45.08474496185008,121.011302287281,177.8586257021865,39.2968798089505,20200531.1612901,87.937127048393,HTC,6,9,217,,,,,
"     C/2019 Y5 (PANSTARRS)",.9937253365503042,4.914537149590714,82.83838407136425,51.77488560052481,303.5029450419877,1561.555820660256,20190818.1742710,21920.2993412976,COM,313,,49,,,,,
"     C/2020 A2 (Iwamoto)",.9990799962042505,.9780124144227942,120.7501358748003,286.3793466897773,68.2092165861792,2125.127160066981,20200108.3206845,34660.9390663831,COM,104,,481,,,,,
"     C/2020 A3 (ATLAS)",.9991528090146504,5.767111065267952,146.7003509992204,120.7916407634083,268.4246513818186,13608.89868448321,20190629.0139158,561660.246575153,COM,137,,66,,,,,
"     C/2020 B2 (Lemmon)",.9592215068489967,2.768047198951446,55.70413564679009,354.3388692823257,143.6296654248786,132.9921040504499,20200126.2872442,559.27019920454,COM,100,4,106,,,,,
"     C/2020 B3 (Rankin)",.9982688198375889,3.344538628125218,20.70224015600518,185.8245821805044,325.0934371981772,3860.538263109897,20191019.8912330,84917.876673417,JFc,121,,181,,,,,
"     C/2020 F2 (ATLAS)",1.001700741555982,8.817693941892802,163.5731988119302,250.2490541779431,48.36521087380939,,20220716.7341511,,HYP,413,,326,,,,,
"     C/2020 F3 (NEOWISE)",.99916958479388,.2946512619109637,128.937400236612,61.00942236569867,37.2784724513936,709.3533892350042,20200703.6790564,6683.86578749505,COM,113,,376,,,,,
"     C/2020 F5 (MASTER)",1.002463870499709,4.326557780222589,51.70208314445343,350.6419516378548,311.0320557837028,,20210324.1132829,,HYP,114,,126,,,,,
"     C/2020 F6 (PANSTARRS)",.9909615972790123,3.511074670048985,174.5814070031656,207.879772303157,344.5906258421103,773.4126315277464,20200411.5644280,7656.50849337704,COM,93,,88,,,,,
"     C/2020 F8 (SWAN)",.999935216427192,.4303320065673257,110.7977498883903,260.0292279461612,68.19332611345386,13284.78960615486,20200527.5449029,541397.606776848,COM,42,,376,,1.492750115840302E-7,-2.606070136171146E-8,,
"     P/2020 G1 (Pimentel)",.8597833423554796,.5058222418931133,18.47472884913901,240.0996970698178,207.6515131874512,6.709044385087574,20200317.4117554,6.85181564881734,JFc,68,6,476,,,,,
"     C/2020 H2 (Pruyne)",.9954595171155727,.8336124489554735,125.0445023346209,277.6341312731871,26.6902003101394,366.3574860196889,20200427.5885382,2487.71958567262,COM,43,,120,,,,,
"     C/2020 H3 (Wierzchos)",1.002336161269419,2.304405735722076,62.36950983766659,270.5701286736311,29.60875887697746,,20200603.5697604,,HYP,82,,98,,,,,
"     C/2020 H4 (Leonard)",.9933206354068499,.9382941508788823,84.32043228474595,307.7679276442475,116.7725261921801,280.0148228091182,20200829.2483278,1664.999052512,COM,42,,37,,,,,
"     C/2020 H5 (Robinson)",.9962561710849185,9.349992809667119,70.20376523186087,210.6463243370222,326.0969675981453,4985.532530802414,20201205.9282397,124810.500947402,COM,50,,60,,,,,
"     C/2020 H6 (ATLAS)",1.000792470357468,4.703315950198622,79.94626801112125,213.7113648272108,20.33217547561529,,20210930.9825731,,HYP,66,,94,,,,,
"     C/2020 H7 (Lemmon)",.9996903483955321,4.420191614894895,135.92269104,323.5289591588111,82.76526001851457,28545.03055313339,20200603.4807858,1705531.89235314,COM,55,,161,,,,,
"     C/2020 H8 (PANSTARRS)",.9921425971008619,4.674431622607155,99.6456340842264,68.40823714121156,128.8833249613964,1185.141512044971,20200604.1040492,14510.5169588056,COM,65,,160,,,,,
"     C/2020 J1 (SONEAR)",1.000074348353916,3.355354929102919,142.3046042235628,226.5482679821901,341.7048052978408,,20210418.5217827,,HYP,70,,96,,,,,
"     C/2020 K1 (PANSTARRS)",.9991981673621112,3.078252057538469,89.64640911607792,94.38987994942289,213.9263552649466,7674.963055024725,20230509.5599590,237869.563234399,COM,87,,116,,,,,
"     C/2020 K2 (PANSTARRS)",1.00060912240218,8.87790955671365,91.03274908025527,288.3316403549775,67.19332164169207,,20200803.2233148,,HYP,51,,63,,,,,
"     C/2020 K3 (Leonard)",.9924253567908886,1.593446985712974,128.715387679268,27.92766858583209,62.69739976445502,419.1384453881083,20200530.1215885,3051.20480297073,COM,263,,171,,,,,
"     C/2020 K4 (PANSTARRS)",.9604207453254926,1.77234096550109,125.9069871880134,264.1048875162471,310.2617337815856,87.78674649465952,20200306.4466054,299.659257070409,COM,38,7,43,,,,,
"     C/2020 K5 (PANSTARRS)",1.001230434533822,1.535158606983942,67.16466998972498,86.16125823922859,249.6146139880507,,20210605.6081330,,HYP,102,,42,,,,,
"     C/2020 K6 (Rankin)",.9979543645440662,5.88437791129809,103.6189720731873,291.5289898346412,43.82216230908676,5747.220745710897,20210911.7250270,154282.502063192,COM,29,,34,,,,,
"     C/2020 K7 (PANSTARRS)",.9411028548438551,6.384701711710709,32.05910446783655,286.1048232447499,358.2652462533599,210.4238276247772,20191030.4125415,1128.69799625758,JFc,40,,47,,,,,
"     C/2020 K8 (Catalina-ATLAS)",.9999970236811517,.4744532948334932,31.41623118980053,181.5093410076898,260.0824260215895,318818.3880549561,20200914.5187973,63647187.9826533,COM,48,,148,,,,,
"     P/2020 K9 (Lemmon-PANSTARRS)",.3225390600425014,2.846111852324386,23.20495707769537,166.2296376690125,197.076863953036,5.556178772734942,20210212.3940930,8.61112230339912,JFc,44,7,40,,,,,
"     P/2020 M1 (PANSTARRS)",.4769581015598451,2.660922063435347,8.632843666826661,142.9519764186572,67.86325458566246,7.513873001246465,20191221.1444562,11.4749741206592,JFc,48,6,42,,,,,
"     C/2020 M3 (ATLAS)",1.002168307837011,1.301072364246926,23.82198691455191,72.85465424440558,325.28557337,,20201024.2690559,,HYP,14,,21,T,,,,
"     C/2020 M5 (ATLAS)",.9993913001230401,3.004664813818783,93.22322026320685,352.0989503503669,126.3373034765809,9869.396916160393,20210819.9305562,346814.64492305,COM,344,,181,,,,,
"     C/2020 N1 (PANSTARRS)",1.000214065568118,1.319795595019499,29.70260115450263,279.9650442500976,186.8198467341504,,20210312.2087064,,HYP,17,,49,,,,,
"     C/2020 N2 (ATLAS)",1.000002146069378,1.795971068724268,161.0437291898666,256.9790443545921,330.9629953451669,,20200823.3336241,0,HYP,11,,78,T,,,,
"     P/2020 O1 (Lemmon-PANSTARRS)",.1202406464087957,2.328411764025689,5.221015403141787,176.0099167680168,104.6132750749502,2.964880667639952,20200503.1600167,4.30578202195926,ETc,35,5,60,,,,,
"     C/2020 O2 (Amaral)",1.018004571053535,4.873005160385704,71.81882611625309,256.6847805603409,10.03202185587602,,20210825.7808095,0,HYP,8,,63,T,,,,
"     P/2020 O3 (PANSTARRS)",.1053753594665709,4.176192072963681,8.449703917102758,266.9696926037711,78.00484833245045,5.159996276316714,20210102.3443879,10.0859686916959,JFc,11,8,26,,,,,
